PANDORA
1 67395U 80229J   26051.95263889  .00000000  00000-0  37770-3 0    05
2 67395  97.8017  52.4484 0006316 139.8706 144.3188 14.87833146    05
